[{"OBJECT_NAME":"STARLINK-30918","OBJECT_ID":"2023-177Q","EPOCH":"2026-03-09T22:00:01.999584","MEAN_MOTION":15.26731725,"ECCENTRICITY":0.00016358,"INCLINATION":43.0004,"RA_OF_ASC_NODE":349.2604,"ARG_OF_PERICENTER":263.222,"MEAN_ANOMALY":68.6166,"EPHEMERIS_TYPE":0,"CLASSIFICATION_TYPE":"U","NORAD_CAT_ID":58365,"ELEMENT_SET_NO":999,"REV_AT_EPOCH":578,"BSTAR":-0.00013246726,"MEAN_MOTION_DOT":-3.81e-5,"MEAN_MOTION_DDOT":0},{"OBJECT_NAME":"OBJECT V","OBJECT_ID":"2025-155V","EPOCH":"2026-03-09T20:35:20.067360","MEAN_MOTION":15.27583301,"ECCENTRICITY":0.00080353,"INCLINATION":97.4485,"RA_OF_ASC_NODE":37.249,"ARG_OF_PERICENTER":152.8264,"MEAN_ANOMALY":207.3397,"EPHEMERIS_TYPE":0,"CLASSIFICATION_TYPE":"U","NORAD_CAT_ID":64895,"ELEMENT_SET_NO":999,"REV_AT_EPOCH":6557,"BSTAR":0.00051002361,"MEAN_MOTION_DOT":0.00013705,"MEAN_MOTION_DDOT":0}]
